start=new Date('2022-11-04T00:00:00.000Z').valueOf();
sats=[{"MEAN_ANOMALY":"306.5881","ELEMENT_SET_NO":"999","CENTER_NAME":"EARTH","OBJECT_TYPE":"PAYLOAD","MEAN_MOTION_DOT":"0.00001842","TLE_LINE1":"1 51786U 22017U   22307.46114613  .00001842  00000-0  13383-3 0  9995","PERIAPSIS":"538.490","SEMIMAJOR_AXIS":"6917.885","NORAD_CAT_ID":"51786","BSTAR":"0.00013383000000","RA_OF_ASC_NODE":"75.9096","ECCENTRICITY":"0.00018210","MEAN_ELEMENT_THEORY":"SGP4","REV_AT_EPOCH":"3776","RCS_SIZE":"LARGE","REF_FRAME":"TEME","FILE":"3643813","OBJECT_ID":"2022-017U","PERIOD":"95.438","CLASSIFICATION_TYPE":"U","MEAN_MOTION":"15.08838576","TLE_LINE2":"2 51786  53.2166  75.9096 0001821  53.5279 306.5881 15.08838576 37766","COUNTRY_CODE":"US","DECAY_DATE":null,"APOAPSIS":"541.009","SITE":"AFWTR","OBJECT_NAME":"STARLINK-3638","ARG_OF_PERICENTER":"53.5279","EPHEMERIS_TYPE":"0","INCLINATION":"53.2166","GP_ID":"216833400","MEAN_MOTION_DDOT":"0.0000000000000","LAUNCH_DATE":"2022-02-25","TIME_SYSTEM":"UTC","EPOCH":"2022-11-03T11:04:03.025632"},{"INCLINATION":"53.2171","GP_ID":"216863479","LAUNCH_DATE":"2022-02-25","MEAN_MOTION_DDOT":"0.0000000000000","TIME_SYSTEM":"UTC","EPOCH":"2022-11-03T20:57:33.469056","PERIOD":"95.436","OBJECT_ID":"2022-017V","FILE":"3644033","CLASSIFICATION_TYPE":"U","MEAN_MOTION":"15.08860640","DECAY_DATE":null,"COUNTRY_CODE":"US","TLE_LINE2":"2 51787  53.2171  74.0648 0002021  42.3296 317.7852 15.08860640 37820","ARG_OF_PERICENTER":"42.3296","EPHEMERIS_TYPE":"0","OBJECT_NAME":"STARLINK-3619","SITE":"AFWTR","APOAPSIS":"541.080","SEMIMAJOR_AXIS":"6917.817","NORAD_CAT_ID":"51787","RA_OF_ASC_NODE":"74.0648","BSTAR":"0.00050929000000","MEAN_ELEMENT_THEORY":"SGP4","ECCENTRICITY":"0.00020210","REV_AT_EPOCH":"3782","RCS_SIZE":"LARGE","REF_FRAME":"TEME","MEAN_ANOMALY":"317.7852","ELEMENT_SET_NO":"999","CENTER_NAME":"EARTH","MEAN_MOTION_DOT":"0.00007831","TLE_LINE1":"1 51787U 22017V   22307.87330404  .00007831  00000-0  50929-3 0  9990","OBJECT_TYPE":"PAYLOAD","PERIAPSIS":"538.284"},{"CENTER_NAME":"EARTH","PERIAPSIS":"538.566","TLE_LINE1":"1 51788U 22017W   22307.45010029  .00002101  00000-0  15001-3 0  9990","MEAN_MOTION_DOT":"0.00002101","OBJECT_TYPE":"PAYLOAD","ELEMENT_SET_NO":"999","MEAN_ANOMALY":"316.7438","REV_AT_EPOCH":"3940","RCS_SIZE":"LARGE","MEAN_ELEMENT_THEORY":"SGP4","ECCENTRICITY":"0.00016640","REF_FRAME":"TEME","BSTAR":"0.00015001000000","RA_OF_ASC_NODE":"75.9774","SEMIMAJOR_AXIS":"6917.852","NORAD_CAT_ID":"51788","DECAY_DATE":null,"TLE_LINE2":"2 51788  53.2174  75.9774 0001664  43.3685 316.7438 15.08849231 39407","COUNTRY_CODE":"US","MEAN_MOTION":"15.08849231","OBJECT_NAME":"STARLINK-3641","ARG_OF_PERICENTER":"43.3685","EPHEMERIS_TYPE":"0","APOAPSIS":"540.868","SITE":"AFWTR","CLASSIFICATION_TYPE":"U","PERIOD":"95.437","OBJECT_ID":"2022-017W","FILE":"3643813","TIME_SYSTEM":"UTC","LAUNCH_DATE":"2022-02-25","MEAN_MOTION_DDOT":"0.0000000000000","EPOCH":"2022-11-03T10:48:08.665056","INCLINATION":"53.2174","GP_ID":"216832900"},{"MEAN_ANOMALY":"318.2234","ELEMENT_SET_NO":"999","TLE_LINE1":"1 51789U 22017X   22307.53105865  .00001735  00000-0  12704-3 0  9992","MEAN_MOTION_DOT":"0.00001735","OBJECT_TYPE":"PAYLOAD","PERIAPSIS":"538.299","CENTER_NAME":"EARTH","SEMIMAJOR_AXIS":"6917.854","NORAD_CAT_ID":"51789","BSTAR":"0.00012704000000","RA_OF_ASC_NODE":"75.6027","REF_FRAME":"TEME","MEAN_ELEMENT_THEORY":"SGP4","ECCENTRICITY":"0.00020520","REV_AT_EPOCH":"3777","RCS_SIZE":"LARGE","OBJECT_ID":"2022-017X","PERIOD":"95.437","FILE":"3643813","CLASSIFICATION_TYPE":"U","EPHEMERIS_TYPE":"0","OBJECT_NAME":"STARLINK-3639","ARG_OF_PERICENTER":"41.8914","SITE":"AFWTR","APOAPSIS":"541.138","MEAN_MOTION":"15.08848764","DECAY_DATE":null,"COUNTRY_CODE":"US","TLE_LINE2":"2 51789  53.2179  75.6027 0002052  41.8914 318.2234 15.08848764 37770","GP_ID":"216833652","INCLINATION":"53.2179","EPOCH":"2022-11-03T12:44:43.467360","MEAN_MOTION_DDOT":"0.0000000000000","LAUNCH_DATE":"2022-02-25","TIME_SYSTEM":"UTC"},{"SITE":"AFWTR","APOAPSIS":"541.072","ARG_OF_PERICENTER":"46.5806","OBJECT_NAME":"STARLINK-3631","EPHEMERIS_TYPE":"0","TLE_LINE2":"2 51790  53.2184  74.5098 0001918  46.5806 313.5345 15.08839965 39503","COUNTRY_CODE":"US","DECAY_DATE":null,"MEAN_MOTION":"15.08839965","CLASSIFICATION_TYPE":"U","FILE":"3643974","OBJECT_ID":"2022-017Y","PERIOD":"95.438","EPOCH":"2022-11-03T18:39:46.825920","TIME_SYSTEM":"UTC","LAUNCH_DATE":"2022-02-25","MEAN_MOTION_DDOT":"0.0000000000000","GP_ID":"216838739","INCLINATION":"53.2184","PERIAPSIS":"538.419","OBJECT_TYPE":"PAYLOAD","MEAN_MOTION_DOT":"0.00002298","TLE_LINE1":"1 51790U 22017Y   22307.77762530  .00002298  00000-0  16242-3 0  9994","CENTER_NAME":"EARTH","ELEMENT_SET_NO":"999","MEAN_ANOMALY":"313.5345","REF_FRAME":"TEME","RCS_SIZE":"LARGE","REV_AT_EPOCH":"3950","ECCENTRICITY":"0.00019180","MEAN_ELEMENT_THEORY":"SGP4","RA_OF_ASC_NODE":"74.5098","BSTAR":"0.00016242000000","NORAD_CAT_ID":"51790","SEMIMAJOR_AXIS":"6917.880"},{"DECAY_DATE":null,"COUNTRY_CODE":"US","TLE_LINE2":"2 51791  53.2169  75.9301 0001745  48.9480 311.1663 15.08843438 39407","MEAN_MOTION":"15.08843438","ARG_OF_PERICENTER":"48.9480","EPHEMERIS_TYPE":"0","OBJECT_NAME":"STARLINK-3602","APOAPSIS":"540.942","SITE":"AFWTR","CLASSIFICATION_TYPE":"U","PERIOD":"95.437","OBJECT_ID":"2022-017Z","FILE":"3643813","TIME_SYSTEM":"UTC","LAUNCH_DATE":"2022-02-25","MEAN_MOTION_DDOT":"0.0000000000000","EPOCH":"2022-11-03T10:58:45.052032","INCLINATION":"53.2169","GP_ID":"216832151","CENTER_NAME":"EARTH","PERIAPSIS":"538.528","TLE_LINE1":"1 51791U 22017Z   22307.45746588  .00004778  00000-0  31804-3 0  9991","MEAN_MOTION_DOT":"0.00004778","OBJECT_TYPE":"PAYLOAD","ELEMENT_SET_NO":"999","MEAN_ANOMALY":"311.1663","RCS_SIZE":"LARGE","REV_AT_EPOCH":"3940","ECCENTRICITY":"0.00017450","MEAN_ELEMENT_THEORY":"SGP4","REF_FRAME":"TEME","BSTAR":"0.00031804000000","RA_OF_ASC_NODE":"75.9301","SEMIMAJOR_AXIS":"6917.870","NORAD_CAT_ID":"51791"},{"NORAD_CAT_ID":"51792","SEMIMAJOR_AXIS":"6917.839","BSTAR":"0.00039200000000","RA_OF_ASC_NODE":"75.7280","ECCENTRICITY":"0.00015590","MEAN_ELEMENT_THEORY":"SGP4","RCS_SIZE":"LARGE","REV_AT_EPOCH":"3946","REF_FRAME":"TEME","MEAN_ANOMALY":"281.3301","ELEMENT_SET_NO":"999","CENTER_NAME":"EARTH","MEAN_MOTION_DOT":"0.00005958","TLE_LINE1":"1 51792U 22017AA  22307.50531009  .00005958  00000-0  39200-3 0  9997","OBJECT_TYPE":"PAYLOAD","PERIAPSIS":"538.626","INCLINATION":"53.2151","GP_ID":"216832401","MEAN_MOTION_DDOT":"0.0000000000000","LAUNCH_DATE":"2022-02-25","TIME_SYSTEM":"UTC","EPOCH":"2022-11-03T12:07:38.791776","OBJECT_ID":"2022-017AA","PERIOD":"95.437","FILE":"3643813","CLASSIFICATION_TYPE":"U","MEAN_MOTION":"15.08853387","DECAY_DATE":null,"TLE_LINE2":"2 51792  53.2151  75.7280 0001559  78.7866 281.3301 15.08853387 39462","COUNTRY_CODE":"US","OBJECT_NAME":"STARLINK-3626","ARG_OF_PERICENTER":"78.7866","EPHEMERIS_TYPE":"0","SITE":"AFWTR","APOAPSIS":"540.783"},{"CLASSIFICATION_TYPE":"U","FILE":"3644033","OBJECT_ID":"2022-017AB","PERIOD":"95.437","COUNTRY_CODE":"US","TLE_LINE2":"2 51793  53.2179  75.3663 0001849  47.8488 312.2661 15.08849065 39475","DECAY_DATE":null,"MEAN_MOTION":"15.08849065","SITE":"AFWTR","APOAPSIS":"540.997","ARG_OF_PERICENTER":"47.8488","EPHEMERIS_TYPE":"0","OBJECT_NAME":"STARLINK-3633","INCLINATION":"53.2179","GP_ID":"216862483","TIME_SYSTEM":"UTC","LAUNCH_DATE":"2022-02-25","MEAN_MOTION_DDOT":"0.0000000000000","EPOCH":"2022-11-03T14:04:13.850688","ELEMENT_SET_NO":"999","MEAN_ANOMALY":"312.2661","CENTER_NAME":"EARTH","PERIAPSIS":"538.439","OBJECT_TYPE":"PAYLOAD","MEAN_MOTION_DOT":"0.00000765","TLE_LINE1":"1 51793U 22017AB  22307.58627142  .00000765  00000-0  66135-4 0  9999","RA_OF_ASC_NODE":"75.3663","BSTAR":"0.00006613500000","NORAD_CAT_ID":"51793","SEMIMAJOR_AXIS":"6917.853","RCS_SIZE":"LARGE","REV_AT_EPOCH":"3947","ECCENTRICITY":"0.00018490","MEAN_ELEMENT_THEORY":"SGP4","REF_FRAME":"TEME"},{"GP_ID":"216833401","INCLINATION":"53.2162","EPOCH":"2022-11-03T10:21:38.776320","TIME_SYSTEM":"UTC","MEAN_MOTION_DDOT":"0.0000000000000","LAUNCH_DATE":"2022-02-25","CLASSIFICATION_TYPE":"U","PERIOD":"95.437","OBJECT_ID":"2022-017AC","FILE":"3643813","OBJECT_NAME":"STARLINK-3573","ARG_OF_PERICENTER":"56.0892","EPHEMERIS_TYPE":"0","APOAPSIS":"540.848","SITE":"AFWTR","DECAY_DATE":null,"COUNTRY_CODE":"US","TLE_LINE2":"2 51794  53.2162  76.0542 0001638  56.0892 304.0256 15.08850113 39407","MEAN_MOTION":"15.08850113","RA_OF_ASC_NODE":"76.0542","BSTAR":"0.00015004000000","SEMIMAJOR_AXIS":"6917.849","NORAD_CAT_ID":"51794","REF_FRAME":"TEME","REV_AT_EPOCH":"3940","RCS_SIZE":"LARGE","ECCENTRICITY":"0.00016380","MEAN_ELEMENT_THEORY":"SGP4","ELEMENT_SET_NO":"999","MEAN_ANOMALY":"304.0256","PERIAPSIS":"538.581","MEAN_MOTION_DOT":"0.00002101","TLE_LINE1":"1 51794U 22017AC  22307.43169880  .00002101  00000-0  15004-3 0  9998","OBJECT_TYPE":"PAYLOAD","CENTER_NAME":"EARTH"},{"PERIOD":"95.437","OBJECT_ID":"2022-017AD","FILE":"3644033","CLASSIFICATION_TYPE":"U","MEAN_MOTION":"15.08845323","DECAY_DATE":null,"TLE_LINE2":"2 51795  53.2164  74.5530 0001641  51.1900 308.9238 15.08845323 39455","COUNTRY_CODE":"US","ARG_OF_PERICENTER":"51.1900","OBJECT_NAME":"STARLINK-3586","EPHEMERIS_TYPE":"0","SITE":"AFWTR","APOAPSIS":"540.864","INCLINATION":"53.2164","GP_ID":"216863480","LAUNCH_DATE":"2022-02-25","MEAN_MOTION_DDOT":"0.0000000000000","TIME_SYSTEM":"UTC","EPOCH":"2022-11-03T18:23:52.734912","MEAN_ANOMALY":"308.9238","ELEMENT_SET_NO":"999","CENTER_NAME":"EARTH","MEAN_MOTION_DOT":"0.00001359","TLE_LINE1":"1 51795U 22017AD  22307.76658258  .00001359  00000-0  10347-3 0  9996","OBJECT_TYPE":"PAYLOAD","PERIAPSIS":"538.594","NORAD_CAT_ID":"51795","SEMIMAJOR_AXIS":"6917.864","BSTAR":"0.00010347000000","RA_OF_ASC_NODE":"74.5530","MEAN_ELEMENT_THEORY":"SGP4","ECCENTRICITY":"0.00016410","RCS_SIZE":"LARGE","REV_AT_EPOCH":"3945","REF_FRAME":"TEME"}];
